{"type": "FeatureCollection", "features": [ {"type": "Feature", "properties": {"norad_id": 33841, "name": "COSMOS 2251 DEB", "group": "cosmos-2251-debris", "lat": -13.371792292601935, "lon": 104.45847014289781, "alt_km": 784.0061620351617, "timestamp": "2025-12-11T08:58:27.518095+00:00", "meta": {"OBJECT_NAME": "COSMOS 2251 DEB", "OBJECT_ID": "1993-036CJ", "EPOCH": "2025-12-10T07:46:17.469120", "MEAN_MOTION": 14.37855141, "ECCENTRICITY": 0.0020427, "INCLINATION": 74.0377, "RA_OF_ASC_NODE": 282.4898, "ARG_OF_PERICENTER": 3.3922, "MEAN_ANOMALY": 156.9543, "EPHEMERIS_TYPE": 0, "CLASSIFICATION_TYPE": "U", "NORAD_CAT_ID": 33841, "ELEMENT_SET_NO": 999, "REV_AT_EPOCH": 88079, "BSTAR": 0.00041232, "MEAN_MOTION_DOT": 1.22e-05, "MEAN_MOTION_DDOT": 0}, "tle": {"line1": "1 33841U 93036CJ  25344.32381330  .00001220  00000+0  41232-3 0  9990", "line2": "2 33841  74.0377 282.4898 0020427   3.3922 156.9543 14.37855141880798"}}, "geometry": {"type": "Point", "coordinates": [104.45847014289781, -13.371792292601935]}}, {"type": "Feature", "properties": {"norad_id": 33842, "name": "COSMOS 2251 DEB", "group": "cosmos-2251-debris", "lat": 60.87294713601999, "lon": -106.89412859245176, "alt_km": 746.4650630149181, "timestamp": "2025-12-11T08:58:27.518120+00:00", "meta": {"OBJECT_NAME": "COSMOS 2251 DEB", "OBJECT_ID": "1993-036CK", "EPOCH": "2025-12-11T02:01:01.284096", "MEAN_MOTION": 14.42692078, "ECCENTRICITY": 0.0047247, "INCLINATION": 74.033, "RA_OF_ASC_NODE": 222.7249, "ARG_OF_PERICENTER": 330.387, "MEAN_ANOMALY": 29.4612, "EPHEMERIS_TYPE": 0, "CLASSIFICATION_TYPE": "U", "NORAD_CAT_ID": 33842, "ELEMENT_SET_NO": 999, "REV_AT_EPOCH": 88313, "BSTAR": 0.00043655, "MEAN_MOTION_DOT": 1.445e-05, "MEAN_MOTION_DDOT": 0}, "tle": {"line1": "1 33842U 93036CK  25345.08404264  .00001445  00000+0  43655-3 0  9997", "line2": "2 33842  74.0330 222.7249 0047247 330.3870  29.4612 14.42692078883135"}}, "geometry": {"type": "Point", "coordinates": [-106.89412859245176, 60.87294713601999]}}, {"type": "Feature", "properties": {"norad_id": 33844, "name": "COSMOS 2251 DEB", "group": "cosmos-2251-debris", "lat": 37.32768026727763, "lon": 67.85432472715726, "alt_km": 749.8642037187274, "timestamp": "2025-12-11T08:58:27.518131+00:00", "meta": {"OBJECT_NAME": "COSMOS 2251 DEB", "OBJECT_ID": "1993-036CM", "EPOCH": "2025-12-11T05:45:32.950080", "MEAN_MOTION": 14.33710906, "ECCENTRICITY": 0.0047061, "INCLINATION": 74.0671, "RA_OF_ASC_NODE": 55.5169, "ARG_OF_PERICENTER": 77.9423, "MEAN_ANOMALY": 350.4098, "EPHEMERIS_TYPE": 0, "CLASSIFICATION_TYPE": "U", "NORAD_CAT_ID": 33844, "ELEMENT_SET_NO": 999, "REV_AT_EPOCH": 87704, "BSTAR": 0.00054313, "MEAN_MOTION_DOT": 1.501e-05, "MEAN_MOTION_DDOT": 0}, "tle": {"line1": "1 33844U 93036CM  25345.23996470  .00001501  00000+0  54313-3 0  9997", "line2": "2 33844  74.0671  55.5169 0047061  77.9423 350.4098 14.33710906877049"}}, "geometry": {"type": "Point", "coordinates": [67.85432472715726, 37.32768026727763]}}, {"type": "Feature", "properties": {"norad_id": 33848, "name": "COSMOS 2251 DEB", "group": "cosmos-2251-debris", "lat": 11.036706002832696, "lon": 176.98282466334408, "alt_km": 757.022426448666, "timestamp": "2025-12-11T08:58:27.518141+00:00", "meta": {"OBJECT_NAME": "COSMOS 2251 DEB", "OBJECT_ID": "1993-036CR", "EPOCH": "2025-12-11T03:30:21.013056", "MEAN_MOTION": 14.44043037, "ECCENTRICITY": 0.004105, "INCLINATION": 74.0324, "RA_OF_ASC_NODE": 0.6079, "ARG_OF_PERICENTER": 57.0287, "MEAN_ANOMALY": 6.9092, "EPHEMERIS_TYPE": 0, "CLASSIFICATION_TYPE": "U", "NORAD_CAT_ID": 33848, "ELEMENT_SET_NO": 999, "REV_AT_EPOCH": 87808, "BSTAR": 0.0014903, "MEAN_MOTION_DOT": 5.128e-05, "MEAN_MOTION_DDOT": 0}, "tle": {"line1": "1 33848U 93036CR  25345.14607654  .00005128  00000+0  14903-2 0  9993", "line2": "2 33848  74.0324   0.6079 0041050  57.0287   6.9092 14.44043037878086"}}, "geometry": {"type": "Point", "coordinates": [176.98282466334408, 11.036706002832696]}}, {"type": "Feature", "properties": {"norad_id": 33892, "name": "COSMOS 2251 DEB", "group": "cosmos-2251-debris", "lat": -14.616524841893481, "lon": -71.10310311618377, "alt_km": 775.9424920464853, "timestamp": "2025-12-11T08:58:27.518152+00:00", "meta": {"OBJECT_NAME": "COSMOS 2251 DEB", "OBJECT_ID": "1993-036CV", "EPOCH": "2025-12-10T19:17:11.840928", "MEAN_MOTION": 14.2332678, "ECCENTRICITY": 0.0112983, "INCLINATION": 73.8029, "RA_OF_ASC_NODE": 105.5897, "ARG_OF_PERICENTER": 137.1931, "MEAN_ANOMALY": 15.653, "EPHEMERIS_TYPE": 0, "CLASSIFICATION_TYPE": "U", "NORAD_CAT_ID": 33892, "ELEMENT_SET_NO": 999, "REV_AT_EPOCH": 86927, "BSTAR": 0.0014084819, "MEAN_MOTION_DOT": 3.384e-05, "MEAN_MOTION_DDOT": 0}, "tle": {"line1": "1 33892U 93036CV  25344.80360927  .00003384  00000+0  14085-2 0  9996", "line2": "2 33892  73.8029 105.5897 0112983 137.1931  15.6530 14.23326780869278"}}, "geometry": {"type": "Point", "coordinates": [-71.10310311618377, -14.616524841893481]}}, {"type": "Feature", "properties": {"norad_id": 33894, "name": "COSMOS 2251 DEB", "group": "cosmos-2251-debris", "lat": -59.309817944014036, "lon": -159.4115265604108, "alt_km": 791.9166787101294, "timestamp": "2025-12-11T08:58:27.518162+00:00", "meta": {"OBJECT_NAME": "COSMOS 2251 DEB", "OBJECT_ID": "1993-036CX", "EPOCH": "2025-12-11T00:25:45.175008", "MEAN_MOTION": 13.21294448, "ECCENTRICITY": 0.0579599, "INCLINATION": 73.7673, "RA_OF_ASC_NODE": 351.7444, "ARG_OF_PERICENTER": 271.3733, "MEAN_ANOMALY": 82.1063, "EPHEMERIS_TYPE": 0, "CLASSIFICATION_TYPE": "U", "NORAD_CAT_ID": 33894, "ELEMENT_SET_NO": 999, "REV_AT_EPOCH": 80685, "BSTAR": 0.0026259, "MEAN_MOTION_DOT": 2.594e-05, "MEAN_MOTION_DDOT": 0}, "tle": {"line1": "1 33894U 93036CX  25345.01788397  .00002594  00000+0  26259-2 0  9995", "line2": "2 33894  73.7673 351.7444 0579599 271.3733  82.1063 13.21294448806855"}}, "geometry": {"type": "Point", "coordinates": [-159.4115265604108, -59.309817944014036]}}, {"type": "Feature", "properties": {"norad_id": 33896, "name": "COSMOS 2251 DEB", "group": "cosmos-2251-debris", "lat": -69.27184384975773, "lon": 108.81869565673315, "alt_km": 778.7652645281632, "timestamp": "2025-12-11T08:58:27.518173+00:00", "meta": {"OBJECT_NAME": "COSMOS 2251 DEB", "OBJECT_ID": "1993-036CZ", "EPOCH": "2025-12-10T22:12:12.398400", "MEAN_MOTION": 14.1903048, "ECCENTRICITY": 0.0126349, "INCLINATION": 73.7663, "RA_OF_ASC_NODE": 159.9773, "ARG_OF_PERICENTER": 335.9788, "MEAN_ANOMALY": 176.4978, "EPHEMERIS_TYPE": 0, "CLASSIFICATION_TYPE": "U", "NORAD_CAT_ID": 33896, "ELEMENT_SET_NO": 999, "REV_AT_EPOCH": 86714, "BSTAR": 0.00092271, "MEAN_MOTION_DOT": 2.059e-05, "MEAN_MOTION_DDOT": 0}, "tle": {"line1": "1 33896U 93036CZ  25344.92514350  .00002059  00000+0  92271-3 0  9996", "line2": "2 33896  73.7663 159.9773 0126349 335.9788 176.4978 14.19030480867140"}}, "geometry": {"type": "Point", "coordinates": [108.81869565673315, -69.27184384975773]}}, {"type": "Feature", "properties": {"norad_id": 33899, "name": "COSMOS 2251 DEB", "group": "cosmos-2251-debris", "lat": 72.8568350464836, "lon": -159.62170104407065, "alt_km": 658.8856888113723, "timestamp": "2025-12-11T08:58:27.518183+00:00", "meta": {"OBJECT_NAME": "COSMOS 2251 DEB", "OBJECT_ID": "1993-036DC", "EPOCH": "2025-12-10T09:50:14.987616", "MEAN_MOTION": 14.61151402, "ECCENTRICITY": 0.00569816, "INCLINATION": 74.0539, "RA_OF_ASC_NODE": 90.1754, "ARG_OF_PERICENTER": 153.566, "MEAN_ANOMALY": 274.4113, "EPHEMERIS_TYPE": 0, "CLASSIFICATION_TYPE": "U", "NORAD_CAT_ID": 33899, "ELEMENT_SET_NO": 999, "REV_AT_EPOCH": 88805, "BSTAR": 0.0016978101, "MEAN_MOTION_DOT": 8.53e-05, "MEAN_MOTION_DDOT": 0}, "tle": {"line1": "1 33899U 93036DC  25344.40989569  .00008530  00000+0  16978-2 0  9999", "line2": "2 33899  74.0539  90.1754 0056981 153.5660 274.4113 14.61151402888059"}}, "geometry": {"type": "Point", "coordinates": [-159.62170104407065, 72.8568350464836]}}, {"type": "Feature", "properties": {"norad_id": 33900, "name": "COSMOS 2251 DEB", "group": "cosmos-2251-debris", "lat": 32.30803786762037, "lon": 172.02485824307843, "alt_km": 663.4639408419998, "timestamp": "2025-12-11T08:58:27.518193+00:00", "meta": {"OBJECT_NAME": "COSMOS 2251 DEB", "OBJECT_ID": "1993-036DD", "EPOCH": "2025-12-11T03:40:16.062816", "MEAN_MOTION": 14.58337683, "ECCENTRICITY": 0.0046939, "INCLINATION": 74.0194, "RA_OF_ASC_NODE": 2.8863, "ARG_OF_PERICENTER": 155.4568, "MEAN_ANOMALY": 271.1563, "EPHEMERIS_TYPE": 0, "CLASSIFICATION_TYPE": "U", "NORAD_CAT_ID": 33900, "ELEMENT_SET_NO": 999, "REV_AT_EPOCH": 89013, "BSTAR": 0.00057515, "MEAN_MOTION_DOT": 2.673e-05, "MEAN_MOTION_DDOT": 0}, "tle": {"line1": "1 33900U 93036DD  25345.15296369  .00002673  00000+0  57515-3 0  9999", "line2": "2 33900  74.0194   2.8863 0046939 155.4568 271.1563 14.58337683890138"}}, "geometry": {"type": "Point", "coordinates": [172.02485824307843, 32.30803786762037]}}, {"type": "Feature", "properties": {"norad_id": 33901, "name": "COSMOS 2251 DEB", "group": "cosmos-2251-debris", "lat": -23.348232090225036, "lon": -120.59113525879214, "alt_km": 503.2297033050718, "timestamp": "2025-12-11T08:58:27.518204+00:00", "meta": {"OBJECT_NAME": "COSMOS 2251 DEB", "OBJECT_ID": "1993-036DE", "EPOCH": "2025-12-11T04:54:29.244096", "MEAN_MOTION": 15.15644952, "ECCENTRICITY": 0.0032139, "INCLINATION": 73.7737, "RA_OF_ASC_NODE": 52.5452, "ARG_OF_PERICENTER": 184.7656, "MEAN_ANOMALY": 175.3237, "EPHEMERIS_TYPE": 0, "CLASSIFICATION_TYPE": "U", "NORAD_CAT_ID": 33901, "ELEMENT_SET_NO": 999, "REV_AT_EPOCH": 89490, "BSTAR": 0.0047929, "MEAN_MOTION_DOT": 0.00093494, "MEAN_MOTION_DDOT": 0}, "tle": {"line1": "1 33901U 93036DE  25345.20450514  .00093494  00000+0  47929-2 0  9998", "line2": "2 33901  73.7737  52.5452 0032139 184.7656 175.3237 15.15644952894900"}}, "geometry": {"type": "Point", "coordinates": [-120.59113525879214, -23.348232090225036]}}]}